[{"OBJECT_NAME":"STARLINK-5072","OBJECT_ID":"2023-028T","EPOCH":"2026-03-09T21:28:37.229376","MEAN_MOTION":14.98331552,"ECCENTRICITY":0.00029159,"INCLINATION":69.9993,"RA_OF_ASC_NODE":243.8254,"ARG_OF_PERICENTER":269.9235,"MEAN_ANOMALY":90.159,"EPHEMERIS_TYPE":0,"CLASSIFICATION_TYPE":"U","NORAD_CAT_ID":55758,"ELEMENT_SET_NO":999,"REV_AT_EPOCH":16607,"BSTAR":6.332235e-6,"MEAN_MOTION_DOT":-1.7e-7,"MEAN_MOTION_DDOT":0},{"OBJECT_NAME":"COSMOS 2151","OBJECT_ID":"1991-042A","EPOCH":"2026-03-09T21:12:10.736640","MEAN_MOTION":15.00104908,"ECCENTRICITY":0.00139956,"INCLINATION":82.493,"RA_OF_ASC_NODE":83.4892,"ARG_OF_PERICENTER":63.3058,"MEAN_ANOMALY":296.9597,"EPHEMERIS_TYPE":0,"CLASSIFICATION_TYPE":"U","NORAD_CAT_ID":21422,"ELEMENT_SET_NO":999,"REV_AT_EPOCH":86322,"BSTAR":0.00015116122,"MEAN_MOTION_DOT":1.915e-5,"MEAN_MOTION_DDOT":0}]
